[{"OBJECT_NAME":"STARLINK-35764","OBJECT_ID":"2025-299H","EPOCH":"2026-03-09T22:00:01.999584","MEAN_MOTION":15.33219164,"ECCENTRICITY":0.00011543,"INCLINATION":43.0006,"RA_OF_ASC_NODE":167.6811,"ARG_OF_PERICENTER":268.9398,"MEAN_ANOMALY":10.8948,"EPHEMERIS_TYPE":0,"CLASSIFICATION_TYPE":"U","NORAD_CAT_ID":67109,"ELEMENT_SET_NO":999,"REV_AT_EPOCH":589,"BSTAR":-0.068626108,"MEAN_MOTION_DOT":-0.02032733,"MEAN_MOTION_DDOT":0},{"OBJECT_NAME":"CZ-4B R\/B","OBJECT_ID":"2010-051C","EPOCH":"2026-03-09T16:48:37.977120","MEAN_MOTION":15.17426017,"ECCENTRICITY":0.00758037,"INCLINATION":97.7974,"RA_OF_ASC_NODE":110.8647,"ARG_OF_PERICENTER":95.044,"MEAN_ANOMALY":265.9451,"EPHEMERIS_TYPE":0,"CLASSIFICATION_TYPE":"U","NORAD_CAT_ID":37181,"ELEMENT_SET_NO":999,"REV_AT_EPOCH":84355,"BSTAR":0.00029718512,"MEAN_MOTION_DOT":6.328e-5,"MEAN_MOTION_DDOT":0}]
